ONEWEB-0578             
1 56067U 23043X   26171.20617809 -.00000005  00000+0 -43706-4 0  9996
2 56067  87.9254 243.3720 0002321  95.5701 264.5698 13.21825043158639
ONEWEB-0579             
1 56068U 23043Y   26171.19777310 -.00000051  00000+0 -15407-3 0  9996
2 56068  87.9260 243.3706 0001763 102.6192 257.5139 13.21826786158642
ONEWEB-0581             
1 56069U 23043Z   26171.19013752 -.00000072  00000+0 -22201-3 0  9993
2 56069  87.9094 228.1881 0001985  80.8661 279.2694 13.16592821159357
ONEWEB-0609             
1 56070U 23043AA  26171.29972749  .00000097  00000+0  22457-3 0  9994
2 56070  87.8999 258.5915 0002048 102.3864 257.7496 13.15549442156845
ONEWEB-0613             
1 56071U 23043AB  26171.29733866  .00000143  00000+0  34610-3 0  9996
2 56071  87.8997 258.6042 0001801 107.4755 252.6573 13.15550112156843
ONEWEB-0630             
1 56072U 23043AC  26171.29259689 -.00000020  00000+0 -86980-4 0  9997
2 56072  87.9004 258.5768 0001812 105.8118 254.3213 13.15546407156836
ONEWEB-0632             
1 56073U 23043AD  26171.28785089  .00000035  00000+0  60145-4 0  9994
2 56073  87.9001 258.5956 0001899  95.5591 264.5756 13.15548465156839
ONEWEB-0633             
1 56074U 23043AE  26171.28150487 -.00000043  00000+0 -14897-3 0  9996
2 56074  87.9010 258.5726 0001905 112.8806 247.2526 13.15547028156810
ONEWEB-0634             
1 56075U 23043AF  26171.26725156 -.00000056  00000+0 -18380-3 0  9991
2 56075  87.9002 258.6156 0002349 102.2359 257.9034 13.15548985156803
ONEWEB-0635             
1 56076U 23043AG  26171.18642410 -.00000050  00000+0 -16605-3 0  9996
2 56076  87.9011 258.5943 0001941  92.5906 267.5447 13.15547205156824
ONEWEB-0636             
1 56077U 23043AH  26171.17851313  .00000017  00000+0  11361-4 0  9996
2 56077  87.9010 258.6022 0001951  94.3854 265.7499 13.15549952156802
ONEWEB-0637             
1 56078U 23043AJ  26171.24823894  .00000108  00000+0  25375-3 0  9998
2 56078  87.9002 258.6047 0002247  94.9974 265.1413 13.15549478156835
ONEWEB-0647             
1 56079U 23043AK  26171.24349003 -.00000358  00000+0 -98425-3 0  9999
2 56079  87.9003 258.6181 0002067  94.8045 265.3321 13.15551737156824
ONEWEB-0651             
1 56080U 23043AL  26171.23873255  .00000273  00000+0  69122-3 0  9997
2 56080  87.9001 258.6126 0002062  93.7635 266.3731 13.15549552158023
ONEWEB-0718             
1 56081U 23043AM  26171.23396882  .00000189  00000+0  46701-3 0  9998
2 56081  87.9001 258.5942 0002410 107.7632 252.3762 13.15546807156835
ONEWEB-0561             
1 56710U 23068A   26171.30370459  .00000126  00000+0  27802-3 0  9996
2 56710  87.9197 273.8219 0001690  91.8538 268.2789 13.20773395149910
ONEWEB-0668             
1 56711U 23068B   26170.70883191  .00000043  00000+0  79553-4 0  9991
2 56711  87.9098 228.2718 0002578  96.9097 263.2327 13.16594377152116
ONEWEB-0676             
1 56712U 23068C   26170.86873403 -.00000002  00000+0 -38669-4 0  9994
2 56712  87.9098 228.2460 0001991  88.0243 272.1116 13.16593526152057
ONEWEB-0677             
1 56713U 23068D   26171.29191670  .00000045  00000+0  78985-4 0  9992
2 56713  87.9196 273.8159 0002216  91.1428 268.9959 13.20770474150217
ONEWEB-0678             
1 56714U 23068E   26171.27834060 -.00000052  00000+0 -17126-3 0  9997
2 56714  87.9009 258.5776 0001720 103.2834 256.8489 13.15548676149696
ONEWEB-0679             
1 56715U 23068F   26171.20754606  .00000476  00000+0  12113-2 0  9996
2 56715  87.9086 228.1703 0002611  88.9147 271.2283 13.16598222152129
ONEWEB-0680             
1 56716U 23068G   26171.27512618 -.00000051  00000+0 -15447-3 0  9994
2 56716  87.9259 243.3569 0002610  95.1996 264.9436 13.21828413151506
ONEWEB-0681             
1 56717U 23068H   26171.18008982 -.00000016  00000+0 -69608-4 0  9999
2 56717  87.9255 243.3768 0001823  69.9759 290.1571 13.21827198151482
ONEWEB-0682             
1 56718U 23068J   26171.22605985  .00000127  00000+0  30250-3 0  9992
2 56718  87.9007 258.5887 0002515  97.0138 263.1279 13.15548651149850
ONEWEB-0683             
1 56719U 23068K   26171.17376759  .00000076  00000+0  16744-3 0  9996
2 56719  87.9012 258.5989 0002284 101.6968 258.4418 13.15549375149818
ONEWEB-0684             
1 56720U 23068L   26171.18168964 -.00000015  00000+0 -73140-4 0  9995
2 56720  87.9010 258.5871 0001732 141.5581 218.5673 13.15548792149642
ONEWEB-0686             
1 56721U 23068M   26170.71199729  .00000030  00000+0  43784-4 0  9993
2 56721  87.9086 228.2918 0002245 104.5643 255.5737 13.16595238152048
ONEWEB-0694             
1 56722U 23068N   26170.64233036 -.00000054  00000+0 -17412-3 0  9992
2 56722  87.9107 228.2705 0002541  96.5125 263.6295 13.16594926152098
ONEWEB-0696             
1 56723U 23068P   26171.21495562 -.00000038  00000+0 -13387-3 0  9990
2 56723  87.9005 258.6196 0001498 101.4204 258.7095 13.15546783149761
ONEWEB-0703             
1 56724U 23068Q   26171.30049838  .00002226  00000+0  58757-2 0  9990
2 56724  87.8984 258.5840 0001379  94.4542 265.6746 13.15571505149665
