OBJECT_NAME,OBJECT_ID,EPOCH,MEAN_MOTION,ECCENTRICITY,INCLINATION,RA_OF_ASC_NODE,ARG_OF_PERICENTER,MEAN_ANOMALY,EPHEMERIS_TYPE,CLASSIFICATION_TYPE,NORAD_CAT_ID,ELEMENT_SET_NO,REV_AT_EPOCH,BSTAR,MEAN_MOTION_DOT,MEAN_MOTION_DDOT
ONEWEB-0578,2023-043X,2026-06-20T04:56:53.786976,13.21825043,.00023215,87.9254,243.3720,95.5701,264.5698,0,U,56067,999,15863,-.43706318E-4,-.5E-7,0
ONEWEB-0579,2023-043Y,2026-06-20T04:44:47.595840,13.21826786,.00017638,87.9260,243.3706,102.6192,257.5139,0,U,56068,999,15864,-.15407011E-3,-.51E-6,0
ONEWEB-0581,2023-043Z,2026-06-20T04:33:47.881728,13.16592821,.00019859,87.9094,228.1881,80.8661,279.2694,0,U,56069,999,15935,-.22201079E-3,-.72E-6,0
ONEWEB-0609,2023-043AA,2026-06-20T07:11:36.455136,13.15549442,.00020484,87.8999,258.5915,102.3864,257.7496,0,U,56070,999,15684,.2245704E-3,.97E-6,0
ONEWEB-0613,2023-043AB,2026-06-20T07:08:10.060224,13.15550112,.00018015,87.8997,258.6042,107.4755,252.6573,0,U,56071,999,15684,.34610469E-3,.143E-5,0
ONEWEB-0630,2023-043AC,2026-06-20T07:01:20.371296,13.15546407,.00018129,87.9004,258.5768,105.8118,254.3213,0,U,56072,999,15683,-.86980299E-4,-.2E-6,0
ONEWEB-0632,2023-043AD,2026-06-20T06:54:30.316896,13.15548465,.00018995,87.9001,258.5956,95.5591,264.5756,0,U,56073,999,15683,.60145419E-4,.35E-6,0
ONEWEB-0633,2023-043AE,2026-06-20T06:45:22.020768,13.15547028,.00019053,87.9010,258.5726,112.8806,247.2526,0,U,56074,999,15681,-.14897013E-3,-.43E-6,0
ONEWEB-0634,2023-043AF,2026-06-20T06:24:50.534784,13.15548985,.0002349,87.9002,258.6156,102.2359,257.9034,0,U,56075,999,15680,-.18379924E-3,-.56E-6,0
ONEWEB-0635,2023-043AG,2026-06-20T04:28:27.042240,13.15547205,.00019416,87.9011,258.5943,92.5906,267.5447,0,U,56076,999,15682,-.16604623E-3,-.5E-6,0
ONEWEB-0636,2023-043AH,2026-06-20T04:17:03.534432,13.15549952,.00019517,87.9010,258.6022,94.3854,265.7499,0,U,56077,999,15680,.11360976E-4,.17E-6,0
ONEWEB-0637,2023-043AJ,2026-06-20T05:57:27.844416,13.15549478,.0002247,87.9002,258.6047,94.9974,265.1413,0,U,56078,999,15683,.25374819E-3,.108E-5,0
ONEWEB-0647,2023-043AK,2026-06-20T05:50:37.538592,13.15551737,.00020671,87.9003,258.6181,94.8045,265.3321,0,U,56079,999,15682,-.98425141E-3,-.358E-5,0
ONEWEB-0651,2023-043AL,2026-06-20T05:43:46.492320,13.15549552,.00020627,87.9001,258.6126,93.7635,266.3731,0,U,56080,999,15802,.69122434E-3,.273E-5,0
ONEWEB-0718,2023-043AM,2026-06-20T05:36:54.906048,13.15546807,.000241,87.9001,258.5942,107.7632,252.3762,0,U,56081,999,15683,.46701337E-3,.189E-5,0
ONEWEB-0561,2023-068A,2026-06-20T07:17:20.076576,13.20773395,.00016903,87.9197,273.8219,91.8538,268.2789,0,U,56710,999,14991,.27802288E-3,.126E-5,0
ONEWEB-0668,2023-068B,2026-06-19T17:00:43.077024,13.16594377,.00025786,87.9098,228.2718,96.9097,263.2327,0,U,56711,999,15211,.79553348E-4,.43E-6,0
ONEWEB-0676,2023-068C,2026-06-19T20:50:58.620192,13.16593526,.00019916,87.9098,228.2460,88.0243,272.1116,0,U,56712,999,15205,-.38668723E-4,-.2E-7,0
ONEWEB-0677,2023-068D,2026-06-20T07:00:21.602880,13.20770474,.0002216,87.9196,273.8159,91.1428,268.9959,0,U,56713,999,15021,.78985316E-4,.45E-6,0
ONEWEB-0678,2023-068E,2026-06-20T06:40:48.627840,13.15548676,.00017209,87.9009,258.5776,103.2834,256.8489,0,U,56714,999,14969,-.17126029E-3,-.52E-6,0
ONEWEB-0679,2023-068F,2026-06-20T04:58:51.979584,13.16598222,.00026116,87.9086,228.1703,88.9147,271.2283,0,U,56715,999,15212,.12112738E-2,.476E-5,0
ONEWEB-0680,2023-068G,2026-06-20T06:36:10.901952,13.21828413,.00026106,87.9259,243.3569,95.1996,264.9436,0,U,56716,999,15150,-.15447408E-3,-.51E-6,0
ONEWEB-0681,2023-068H,2026-06-20T04:19:19.760448,13.21827198,.00018233,87.9255,243.3768,69.9759,290.1571,0,U,56717,999,15148,-.69607958E-4,-.16E-6,0
ONEWEB-0682,2023-068J,2026-06-20T05:25:31.571040,13.15548651,.00025158,87.9007,258.5887,97.0138,263.1279,0,U,56718,999,14985,.30250156E-3,.127E-5,0
ONEWEB-0683,2023-068K,2026-06-20T04:10:13.519776,13.15549375,.00022849,87.9012,258.5989,101.6968,258.4418,0,U,56719,999,14981,.16743878E-3,.76E-6,0
ONEWEB-0684,2023-068L,2026-06-20T04:21:37.984896,13.15548792,.00017325,87.9010,258.5871,141.5581,218.5673,0,U,56720,999,14964,-.73139988E-4,-.15E-6,0
ONEWEB-0686,2023-068M,2026-06-19T17:05:16.565856,13.16595238,.00022453,87.9086,228.2918,104.5643,255.5737,0,U,56721,999,15204,.43783648E-4,.3E-6,0
ONEWEB-0694,2023-068N,2026-06-19T15:24:57.343104,13.16594926,.00025413,87.9107,228.2705,96.5125,263.6295,0,U,56722,999,15209,-.17411609E-3,-.54E-6,0
ONEWEB-0696,2023-068P,2026-06-20T05:09:32.165568,13.15546783,.00014982,87.9005,258.6196,101.4204,258.7095,0,U,56723,999,14976,-.13387411E-3,-.38E-6,0
ONEWEB-0703,2023-068Q,2026-06-20T07:12:43.060032,13.15571505,.00013797,87.8984,258.5840,94.4542,265.6746,0,U,56724,999,14966,.58757094E-2,.2226E-4,0
